{"type": "FeatureCollection", "features": [ {"type": "Feature", "properties": {"norad_id": 65943, "name": "E-KAGAKU-1", "group": "stations", "lat": 1.173276000951224, "lon": 170.0181031710502, "alt_km": 395.05403231121545, "timestamp": "2025-12-06T22:38:41.529042+00:00", "meta": {"OBJECT_NAME": "E-KAGAKU-1", "OBJECT_ID": "1998-067XQ", "EPOCH": "2025-12-05T20:28:25.846752", "MEAN_MOTION": 15.58235285, "ECCENTRICITY": 0.00033373, "INCLINATION": 51.6291, "RA_OF_ASC_NODE": 174.5622, "ARG_OF_PERICENTER": 163.5442, "MEAN_ANOMALY": 196.5659, "EPHEMERIS_TYPE": 0, "CLASSIFICATION_TYPE": "U", "NORAD_CAT_ID": 65943, "ELEMENT_SET_NO": 999, "REV_AT_EPOCH": 878, "BSTAR": 0.00098694907, "MEAN_MOTION_DOT": 0.00076316, "MEAN_MOTION_DDOT": 0}, "tle": {"line1": "1 65943U 98067XQ  25339.85307693  .00076316  00000+0  98695-3 0  9992", "line2": "2 65943  51.6291 174.5622 0003337 163.5442 196.5659 15.58235285  8789"}}, "geometry": {"type": "Point", "coordinates": [170.0181031710502, 1.173276000951224]}}, {"type": "Feature", "properties": {"norad_id": 66052, "name": "HRC MONOBLOCK CAMERA", "group": "stations", "lat": 51.58473096788102, "lon": -97.2405634046836, "alt_km": 398.23206765632494, "timestamp": "2025-12-06T22:38:41.529055+00:00", "meta": {"OBJECT_NAME": "HRC MONOBLOCK CAMERA", "OBJECT_ID": "1998-067XR", "EPOCH": "2025-12-06T12:59:24.130464", "MEAN_MOTION": 15.53538998, "ECCENTRICITY": 0.00041207, "INCLINATION": 51.6285, "RA_OF_ASC_NODE": 172.3998, "ARG_OF_PERICENTER": 160.0329, "MEAN_ANOMALY": 200.0823, "EPHEMERIS_TYPE": 0, "CLASSIFICATION_TYPE": "U", "NORAD_CAT_ID": 66052, "ELEMENT_SET_NO": 999, "REV_AT_EPOCH": 787, "BSTAR": 0.00076054716, "MEAN_MOTION_DOT": 0.00049118, "MEAN_MOTION_DDOT": 0}, "tle": {"line1": "1 66052U 98067XR  25340.54125151  .00049118  00000+0  76055-3 0  9995", "line2": "2 66052  51.6285 172.3998 0004120 160.0329 200.0823 15.53538998  7878"}}, "geometry": {"type": "Point", "coordinates": [-97.2405634046836, 51.58473096788102]}}, {"type": "Feature", "properties": {"norad_id": 66174, "name": "HTV-X1", "group": "stations", "lat": 49.50083900972538, "lon": -120.74501241359965, "alt_km": 413.50422249625717, "timestamp": "2025-12-06T22:38:41.529066+00:00", "meta": {"OBJECT_NAME": "HTV-X1", "OBJECT_ID": "2025-241A", "EPOCH": "2025-12-06T13:01:49.374912", "MEAN_MOTION": 15.4936639, "ECCENTRICITY": 0.00035502, "INCLINATION": 51.6299, "RA_OF_ASC_NODE": 173.16, "ARG_OF_PERICENTER": 211.9909, "MEAN_ANOMALY": 148.0864, "EPHEMERIS_TYPE": 0, "CLASSIFICATION_TYPE": "U", "NORAD_CAT_ID": 66174, "ELEMENT_SET_NO": 999, "REV_AT_EPOCH": 51, "BSTAR": 0.00027332684, "MEAN_MOTION_DOT": 0.00014832, "MEAN_MOTION_DDOT": 0}, "tle": {"line1": "1 66174U 25241A   25340.54293258  .00014832  00000+0  27333-3 0  9998", "line2": "2 66174  51.6299 173.1600 0003550 211.9909 148.0864 15.49366390   513"}}, "geometry": {"type": "Point", "coordinates": [-120.74501241359965, 49.50083900972538]}}, {"type": "Feature", "properties": {"norad_id": 66515, "name": "SZ-21 MODULE", "group": "stations", "lat": 7.993078422134906, "lon": -137.75381432860326, "alt_km": 378.13602211364196, "timestamp": "2025-12-06T22:38:41.529076+00:00", "meta": {"OBJECT_NAME": "SZ-21 MODULE", "OBJECT_ID": "2025-246C", "EPOCH": "2025-12-06T09:39:14.908896", "MEAN_MOTION": 15.62039048, "ECCENTRICITY": 0.00061192, "INCLINATION": 41.4777, "RA_OF_ASC_NODE": 54.6933, "ARG_OF_PERICENTER": 224.7336, "MEAN_ANOMALY": 135.3011, "EPHEMERIS_TYPE": 0, "CLASSIFICATION_TYPE": "U", "NORAD_CAT_ID": 66515, "ELEMENT_SET_NO": 999, "REV_AT_EPOCH": 345, "BSTAR": 0.00043904376, "MEAN_MOTION_DOT": 0.00039389, "MEAN_MOTION_DDOT": 0}, "tle": {"line1": "1 66515U 25246C   25340.40225589  .00039389  00000+0  43904-3 0  9995", "line2": "2 66515  41.4777  54.6933 0006119 224.7336 135.3011 15.62039048  3453"}}, "geometry": {"type": "Point", "coordinates": [-137.75381432860326, 7.993078422134906]}}, {"type": "Feature", "properties": {"norad_id": 66645, "name": "SHENZHOU-22", "group": "stations", "lat": -20.443721291151352, "lon": 26.918242529889003, "alt_km": 386.7234737216386, "timestamp": "2025-12-06T22:38:41.529086+00:00", "meta": {"OBJECT_NAME": "SHENZHOU-22", "OBJECT_ID": "2025-272A", "EPOCH": "2025-12-06T15:05:32.998560", "MEAN_MOTION": 15.5879906, "ECCENTRICITY": 0.00095344, "INCLINATION": 41.4683, "RA_OF_ASC_NODE": 53.7961, "ARG_OF_PERICENTER": 342.8614, "MEAN_ANOMALY": 17.1901, "EPHEMERIS_TYPE": 0, "CLASSIFICATION_TYPE": "U", "NORAD_CAT_ID": 66645, "ELEMENT_SET_NO": 999, "REV_AT_EPOCH": 26300, "BSTAR": 0.00036466504, "MEAN_MOTION_DOT": 0.00028802, "MEAN_MOTION_DDOT": 0}, "tle": {"line1": "1 66645U 25272A   25340.62885415  .00028802  00000+0  36467-3 0  9996", "line2": "2 66645  41.4683  53.7961 0009534 342.8614  17.1901 15.58799060263005"}}, "geometry": {"type": "Point", "coordinates": [26.918242529889003, -20.443721291151352]}}, {"type": "Feature", "properties": {"norad_id": 66646, "name": "CZ-2F R/B", "group": "stations", "lat": 35.39459370887682, "lon": 99.68496183679676, "alt_km": 195.89226042868086, "timestamp": "2025-12-06T22:38:41.529097+00:00", "meta": {"OBJECT_NAME": "CZ-2F R/B", "OBJECT_ID": "2025-272B", "EPOCH": "2025-12-06T15:03:31.842432", "MEAN_MOTION": 16.3225557, "ECCENTRICITY": 0.0042353, "INCLINATION": 41.4546, "RA_OF_ASC_NODE": 48.2158, "ARG_OF_PERICENTER": 219.2345, "MEAN_ANOMALY": 140.5446, "EPHEMERIS_TYPE": 0, "CLASSIFICATION_TYPE": "U", "NORAD_CAT_ID": 66646, "ELEMENT_SET_NO": 999, "REV_AT_EPOCH": 185, "BSTAR": 0.00051205, "MEAN_MOTION_DOT": 0.04297839, "MEAN_MOTION_DDOT": 7.8251e-06}, "tle": {"line1": "1 66646U 25272B   25340.62745188  .04297839  78251-5  51205-3 0  9997", "line2": "2 66646  41.4546  48.2158 0042353 219.2345 140.5446 16.32255570  1859"}}, "geometry": {"type": "Point", "coordinates": [99.68496183679676, 35.39459370887682]}}, {"type": "Feature", "properties": {"norad_id": 66664, "name": "SOYUZ-MS 28", "group": "stations", "lat": 49.50083978553627, "lon": -120.74500851215959, "alt_km": 413.5042223119053, "timestamp": "2025-12-06T22:38:41.529107+00:00", "meta": {"OBJECT_NAME": "SOYUZ-MS 28", "OBJECT_ID": "2025-275A", "EPOCH": "2025-12-06T13:01:49.374912", "MEAN_MOTION": 15.4936639, "ECCENTRICITY": 0.00035502, "INCLINATION": 51.6299, "RA_OF_ASC_NODE": 173.16, "ARG_OF_PERICENTER": 211.9909, "MEAN_ANOMALY": 148.0864, "EPHEMERIS_TYPE": 0, "CLASSIFICATION_TYPE": "U", "NORAD_CAT_ID": 66664, "ELEMENT_SET_NO": 999, "REV_AT_EPOCH": 128, "BSTAR": 0.00027332684, "MEAN_MOTION_DOT": 0.00014832, "MEAN_MOTION_DDOT": 0}, "tle": {"line1": "1 66664U 25275A   25340.54293258  .00014832  00000+0  27333-3 0  9999", "line2": "2 66664  51.6299 173.1600 0003550 211.9909 148.0864 15.49366390  1282"}}, "geometry": {"type": "Point", "coordinates": [-120.74500851215959, 49.50083978553627]}}, {"type": "Feature", "properties": {"norad_id": 66906, "name": "1998-067XS", "group": "stations", "lat": 51.508080004695664, "lon": -103.73469538326962, "alt_km": 409.2421509659325, "timestamp": "2025-12-06T22:38:41.529117+00:00", "meta": {"OBJECT_NAME": "1998-067XS", "OBJECT_ID": "1998-067XS", "EPOCH": "2025-12-06T14:32:06.723168", "MEAN_MOTION": 15.50122906, "ECCENTRICITY": 0.0004191, "INCLINATION": 51.6297, "RA_OF_ASC_NODE": 172.8292, "ARG_OF_PERICENTER": 176.5725, "MEAN_ANOMALY": 183.5293, "EPHEMERIS_TYPE": 0, "CLASSIFICATION_TYPE": "U", "NORAD_CAT_ID": 66906, "ELEMENT_SET_NO": 999, "REV_AT_EPOCH": 66, "BSTAR": 0.00066148009, "MEAN_MOTION_DOT": 0.00037648, "MEAN_MOTION_DDOT": 0}, "tle": {"line1": "1 66906U 98067XS  25340.60563337  .00037648  00000+0  66148-3 0  9999", "line2": "2 66906  51.6297 172.8292 0004191 176.5725 183.5293 15.50122906   662"}}, "geometry": {"type": "Point", "coordinates": [-103.73469538326962, 51.508080004695664]}}, {"type": "Feature", "properties": {"norad_id": 66907, "name": "1998-067XT", "group": "stations", "lat": 51.608187823458834, "lon": -99.41657825118341, "alt_km": 409.0521578906437, "timestamp": "2025-12-06T22:38:41.529127+00:00", "meta": {"OBJECT_NAME": "1998-067XT", "OBJECT_ID": "1998-067XT", "EPOCH": "2025-12-06T14:31:31.325088", "MEAN_MOTION": 15.5045482, "ECCENTRICITY": 0.00051917, "INCLINATION": 51.6295, "RA_OF_ASC_NODE": 172.8271, "ARG_OF_PERICENTER": 193.5378, "MEAN_ANOMALY": 166.5473, "EPHEMERIS_TYPE": 0, "CLASSIFICATION_TYPE": "U", "NORAD_CAT_ID": 66907, "ELEMENT_SET_NO": 999, "REV_AT_EPOCH": 66, "BSTAR": 0.0014185455, "MEAN_MOTION_DOT": 0.00082713, "MEAN_MOTION_DDOT": 0}, "tle": {"line1": "1 66907U 98067XT  25340.60522367  .00082713  00000+0  14185-2 0  9994", "line2": "2 66907  51.6295 172.8271 0005191 193.5378 166.5473 15.50454820   666"}}, "geometry": {"type": "Point", "coordinates": [-99.41657825118341, 51.608187823458834]}}, {"type": "Feature", "properties": {"norad_id": 66908, "name": "1998-067XU", "group": "stations", "lat": 51.607406790249925, "lon": -98.17833688622969, "alt_km": 408.8207953428482, "timestamp": "2025-12-06T22:38:41.529137+00:00", "meta": {"OBJECT_NAME": "1998-067XU", "OBJECT_ID": "1998-067XU", "EPOCH": "2025-12-06T09:52:54.497568", "MEAN_MOTION": 15.50486403, "ECCENTRICITY": 0.0005415, "INCLINATION": 51.6293, "RA_OF_ASC_NODE": 173.7848, "ARG_OF_PERICENTER": 192.211, "MEAN_ANOMALY": 167.8749, "EPHEMERIS_TYPE": 0, "CLASSIFICATION_TYPE": "U", "NORAD_CAT_ID": 66908, "ELEMENT_SET_NO": 999, "REV_AT_EPOCH": 63, "BSTAR": 0.0014263123, "MEAN_MOTION_DOT": 0.00083271, "MEAN_MOTION_DDOT": 0}, "tle": {"line1": "1 66908U 98067XU  25340.41174187  .00083271  00000+0  14263-2 0  9994", "line2": "2 66908  51.6293 173.7848 0005415 192.2110 167.8749 15.50486403   633"}}, "geometry": {"type": "Point", "coordinates": [-98.17833688622969, 51.607406790249925]}}]}